[{"OBJECT_NAME":"AISTECHSAT 2","OBJECT_ID":"2018-099L","EPOCH":"2023-04-26T21:07:47.624448","MEAN_MOTION":14.98008859,"ECCENTRICITY":0.0009567,"INCLINATION":97.5713,"RA_OF_ASC_NODE":178.1222,"ARG_OF_PERICENTER":299.9284,"MEAN_ANOMALY":60.0988,"EPHEMERIS_TYPE":0,"CLASSIFICATION_TYPE":"U","NORAD_CAT_ID":43768,"ELEMENT_SET_NO":999,"REV_AT_EPOCH":23956,"BSTAR":0.00025918,"MEAN_MOTION_DOT":3.006e-5,"MEAN_MOTION_DDOT":0},{"OBJECT_NAME":"FOX-1CLIFF (AO-95)","OBJECT_ID":"2018-099N","EPOCH":"2023-04-27T04:18:48.563136","MEAN_MOTION":14.99308122,"ECCENTRICITY":0.0010784,"INCLINATION":97.5746,"RA_OF_ASC_NODE":180.0949,"ARG_OF_PERICENTER":301.7535,"MEAN_ANOMALY":58.2637,"EPHEMERIS_TYPE":0,"CLASSIFICATION_TYPE":"U","NORAD_CAT_ID":43770,"ELEMENT_SET_NO":999,"REV_AT_EPOCH":23996,"BSTAR":0.00044148,"MEAN_MOTION_DOT":5.342e-5,"MEAN_MOTION_DDOT":0},{"OBJECT_NAME":"RANGE-A","OBJECT_ID":"2018-099Q","EPOCH":"2023-04-27T04:10:15.045600","MEAN_MOTION":15.00872317,"ECCENTRICITY":0.0007114,"INCLINATION":97.5841,"RA_OF_ASC_NODE":182.69,"ARG_OF_PERICENTER":278.4208,"MEAN_ANOMALY":81.6209,"EPHEMERIS_TYPE":0,"CLASSIFICATION_TYPE":"U","NORAD_CAT_ID":43772,"ELEMENT_SET_NO":999,"REV_AT_EPOCH":24001,"BSTAR":0.00053225,"MEAN_MOTION_DOT":6.719e-5,"MEAN_MOTION_DDOT":0},{"OBJECT_NAME":"RANGE-B","OBJECT_ID":"2018-099R","EPOCH":"2023-04-26T21:53:27.958560","MEAN_MOTION":14.98108628,"ECCENTRICITY":0.0010651,"INCLINATION":97.5673,"RA_OF_ASC_NODE":178.0752,"ARG_OF_PERICENTER":291.6384,"MEAN_ANOMALY":68.3704,"EPHEMERIS_TYPE":0,"CLASSIFICATION_TYPE":"U","NORAD_CAT_ID":43773,"ELEMENT_SET_NO":999,"REV_AT_EPOCH":23988,"BSTAR":0.00033076,"MEAN_MOTION_DOT":3.864e-5,"MEAN_MOTION_DDOT":0},{"OBJECT_NAME":"2018-099T","OBJECT_ID":"2018-099T","EPOCH":"2023-04-27T03:11:32.781984","MEAN_MOTION":14.97797607,"ECCENTRICITY":0.0011904,"INCLINATION":97.5774,"RA_OF_ASC_NODE":179.7791,"ARG_OF_PERICENTER":298.5649,"MEAN_ANOMALY":61.4375,"EPHEMERIS_TYPE":0,"CLASSIFICATION_TYPE":"U","NORAD_CAT_ID":43775,"ELEMENT_SET_NO":999,"REV_AT_EPOCH":23991,"BSTAR":0.00028057,"MEAN_MOTION_DOT":3.243e-5,"MEAN_MOTION_DDOT":0},{"OBJECT_NAME":"MOVE-II","OBJECT_ID":"2018-099Y","EPOCH":"2023-04-27T04:23:05.239392","MEAN_MOTION":15.027676,"ECCENTRICITY":0.0007718,"INCLINATION":97.5762,"RA_OF_ASC_NODE":182.3158,"ARG_OF_PERICENTER":331.3631,"MEAN_ANOMALY":28.717,"EPHEMERIS_TYPE":0,"CLASSIFICATION_TYPE":"U","NORAD_CAT_ID":43780,"ELEMENT_SET_NO":999,"REV_AT_EPOCH":24007,"BSTAR":0.00073129,"MEAN_MOTION_DOT":9.733e-5,"MEAN_MOTION_DDOT":0},{"OBJECT_NAME":"SNUSAT-2","OBJECT_ID":"2018-099AA","EPOCH":"2023-04-27T09:48:17.232192","MEAN_MOTION":14.99266142,"ECCENTRICITY":0.0009935,"INCLINATION":97.5791,"RA_OF_ASC_NODE":180.8411,"ARG_OF_PERICENTER":292.5417,"MEAN_ANOMALY":67.4755,"EPHEMERIS_TYPE":0,"CLASSIFICATION_TYPE":"U","NORAD_CAT_ID":43782,"ELEMENT_SET_NO":999,"REV_AT_EPOCH":24002,"BSTAR":0.00034509,"MEAN_MOTION_DOT":4.157e-5,"MEAN_MOTION_DDOT":0},{"OBJECT_NAME":"SNUGLITE","OBJECT_ID":"2018-099AC","EPOCH":"2023-04-26T21:52:34.279104","MEAN_MOTION":14.99771651,"ECCENTRICITY":0.0010709,"INCLINATION":97.5705,"RA_OF_ASC_NODE":179.9902,"ARG_OF_PERICENTER":291.7928,"MEAN_ANOMALY":68.2156,"EPHEMERIS_TYPE":0,"CLASSIFICATION_TYPE":"U","NORAD_CAT_ID":43784,"ELEMENT_SET_NO":999,"REV_AT_EPOCH":23998,"BSTAR":0.00041556,"MEAN_MOTION_DOT":5.086e-5,"MEAN_MOTION_DDOT":0},{"OBJECT_NAME":"ITASAT 1","OBJECT_ID":"2018-099AE","EPOCH":"2023-04-27T04:07:34.451328","MEAN_MOTION":14.9905587,"ECCENTRICITY":0.0012981,"INCLINATION":97.5775,"RA_OF_ASC_NODE":181.1247,"ARG_OF_PERICENTER":292.3935,"MEAN_ANOMALY":67.5912,"EPHEMERIS_TYPE":0,"CLASSIFICATION_TYPE":"U","NORAD_CAT_ID":43786,"ELEMENT_SET_NO":999,"REV_AT_EPOCH":24000,"BSTAR":0.00034402,"MEAN_MOTION_DOT":4.124e-5,"MEAN_MOTION_DDOT":0},{"OBJECT_NAME":"KAZSCISAT-1","OBJECT_ID":"2018-099AF","EPOCH":"2023-04-26T22:17:46.291200","MEAN_MOTION":15.02395337,"ECCENTRICITY":0.000791,"INCLINATION":97.5574,"RA_OF_ASC_NODE":180.5803,"ARG_OF_PERICENTER":299.4248,"MEAN_ANOMALY":60.6187,"EPHEMERIS_TYPE":0,"CLASSIFICATION_TYPE":"U","NORAD_CAT_ID":43787,"ELEMENT_SET_NO":999,"REV_AT_EPOCH":24007,"BSTAR":0.00070121,"MEAN_MOTION_DOT":9.238e-5,"MEAN_MOTION_DDOT":0},{"OBJECT_NAME":"EAGLET-I","OBJECT_ID":"2018-099AJ","EPOCH":"2023-04-26T03:10:40.799424","MEAN_MOTION":14.98739087,"ECCENTRICITY":0.0010484,"INCLINATION":97.58,"RA_OF_ASC_NODE":180.6158,"ARG_OF_PERICENTER":307.2673,"MEAN_ANOMALY":52.7593,"EPHEMERIS_TYPE":0,"CLASSIFICATION_TYPE":"U","NORAD_CAT_ID":43790,"ELEMENT_SET_NO":999,"REV_AT_EPOCH":23958,"BSTAR":0.00035683,"MEAN_MOTION_DOT":4.242e-5,"MEAN_MOTION_DDOT":0},{"OBJECT_NAME":"ESEO","OBJECT_ID":"2018-099AL","EPOCH":"2023-04-27T05:53:03.383520","MEAN_MOTION":14.97418816,"ECCENTRICITY":0.0011208,"INCLINATION":97.5725,"RA_OF_ASC_NODE":180.315,"ARG_OF_PERICENTER":298.3989,"MEAN_ANOMALY":61.6103,"EPHEMERIS_TYPE":0,"CLASSIFICATION_TYPE":"U","NORAD_CAT_ID":43792,"ELEMENT_SET_NO":999,"REV_AT_EPOCH":23976,"BSTAR":0.00021655,"MEAN_MOTION_DOT":2.465e-5,"MEAN_MOTION_DDOT":0},{"OBJECT_NAME":"CSIM-FD","OBJECT_ID":"2018-099AM","EPOCH":"2023-04-26T15:03:34.425792","MEAN_MOTION":15.03204476,"ECCENTRICITY":0.0014189,"INCLINATION":97.5797,"RA_OF_ASC_NODE":183.0281,"ARG_OF_PERICENTER":304.3199,"MEAN_ANOMALY":55.6683,"EPHEMERIS_TYPE":0,"CLASSIFICATION_TYPE":"U","NORAD_CAT_ID":43793,"ELEMENT_SET_NO":999,"REV_AT_EPOCH":23983,"BSTAR":0.00055699,"MEAN_MOTION_DOT":7.494e-5,"MEAN_MOTION_DDOT":0},{"OBJECT_NAME":"ASTROCAST 0.1","OBJECT_ID":"2018-099AS","EPOCH":"2023-04-26T04:25:22.627488","MEAN_MOTION":15.0180605,"ECCENTRICITY":0.0012392,"INCLINATION":97.5915,"RA_OF_ASC_NODE":181.9923,"ARG_OF_PERICENTER":276.0601,"MEAN_ANOMALY":83.9212,"EPHEMERIS_TYPE":0,"CLASSIFICATION_TYPE":"U","NORAD_CAT_ID":43798,"ELEMENT_SET_NO":999,"REV_AT_EPOCH":23996,"BSTAR":0.00039369,"MEAN_MOTION_DOT":5.082e-5,"MEAN_MOTION_DDOT":0},{"OBJECT_NAME":"JY1SAT (JO-97)","OBJECT_ID":"2018-099AX","EPOCH":"2023-04-26T18:26:34.470528","MEAN_MOTION":15.00229495,"ECCENTRICITY":0.0011948,"INCLINATION":97.5713,"RA_OF_ASC_NODE":180.6811,"ARG_OF_PERICENTER":280.7621,"MEAN_ANOMALY":79.2258,"EPHEMERIS_TYPE":0,"CLASSIFICATION_TYPE":"U","NORAD_CAT_ID":43803,"ELEMENT_SET_NO":999,"REV_AT_EPOCH":23998,"BSTAR":0.00038914,"MEAN_MOTION_DOT":4.817e-5,"MEAN_MOTION_DDOT":0},{"OBJECT_NAME":"SUOMI-100","OBJECT_ID":"2018-099AY","EPOCH":"2023-04-26T21:17:45.666240","MEAN_MOTION":14.99948497,"ECCENTRICITY":0.0014614,"INCLINATION":97.5735,"RA_OF_ASC_NODE":180.6333,"ARG_OF_PERICENTER":292.3765,"MEAN_ANOMALY":67.591,"EPHEMERIS_TYPE":0,"CLASSIFICATION_TYPE":"U","NORAD_CAT_ID":43804,"ELEMENT_SET_NO":999,"REV_AT_EPOCH":24000,"BSTAR":0.00034221,"MEAN_MOTION_DOT":4.201e-5,"MEAN_MOTION_DDOT":0},{"OBJECT_NAME":"AL-FARABI 2","OBJECT_ID":"2018-099AZ","EPOCH":"2023-04-27T03:38:07.326816","MEAN_MOTION":15.01463469,"ECCENTRICITY":0.0009144,"INCLINATION":97.5714,"RA_OF_ASC_NODE":181.8639,"ARG_OF_PERICENTER":271.4554,"MEAN_ANOMALY":88.5624,"EPHEMERIS_TYPE":0,"CLASSIFICATION_TYPE":"U","NORAD_CAT_ID":43805,"ELEMENT_SET_NO":999,"REV_AT_EPOCH":24009,"BSTAR":0.00076419,"MEAN_MOTION_DOT":9.831e-5,"MEAN_MOTION_DDOT":0}]
