AISTECHSAT 2            
1 43768U 18099L   23116.88041232  .00003006  00000+0  25918-3 0  9992
2 43768  97.5713 178.1222 0009567 299.9284  60.0988 14.98008859239563
FOX-1CLIFF (AO-95)      
1 43770U 18099N   23117.17972874  .00005342  00000+0  44148-3 0  9994
2 43770  97.5746 180.0949 0010784 301.7535  58.2637 14.99308122239965
RANGE-A                 
1 43772U 18099Q   23117.17378525  .00006719  00000+0  53225-3 0  9994
2 43772  97.5841 182.6900 0007114 278.4208  81.6209 15.00872317240016
RANGE-B                 
1 43773U 18099R   23116.91212915  .00003864  00000+0  33076-3 0  9996
2 43773  97.5673 178.0752 0010651 291.6384  68.3704 14.98108628239884
2018-099T               
1 43775U 18099T   23117.13301831  .00003243  00000+0  28057-3 0  9993
2 43775  97.5774 179.7791 0011904 298.5649  61.4375 14.97797607239913
MOVE-II                 
1 43780U 18099Y   23117.18269953  .00009733  00000+0  73129-3 0  9992
2 43780  97.5762 182.3158 0007718 331.3631  28.7170 15.02767600240073
SNUSAT-2                
1 43782U 18099AA  23117.40853278  .00004157  00000+0  34509-3 0  9992
2 43782  97.5791 180.8411 0009935 292.5417  67.4755 14.99266142240029
SNUGLITE                
1 43784U 18099AC  23116.91150786  .00005086  00000+0  41556-3 0  9995
2 43784  97.5705 179.9902 0010709 291.7928  68.2156 14.99771651239982
ITASAT 1                
1 43786U 18099AE  23117.17192652  .00004124  00000+0  34402-3 0  9998
2 43786  97.5775 181.1247 0012981 292.3935  67.5912 14.99055870240002
KAZSCISAT-1             
1 43787U 18099AF  23116.92900800  .00009238  00000+0  70121-3 0  9992
2 43787  97.5574 180.5803 0007910 299.4248  60.6187 15.02395337240077
EAGLET-I                
1 43790U 18099AJ  23116.13241666  .00004242  00000+0  35683-3 0  9991
2 43790  97.5800 180.6158 0010484 307.2673  52.7593 14.98739087239582
ESEO                    
1 43792U 18099AL  23117.24517805  .00002465  00000+0  21655-3 0  9996
2 43792  97.5725 180.3150 0011208 298.3989  61.6103 14.97418816239763
CSIM-FD                 
1 43793U 18099AM  23116.62748178  .00007494  00000+0  55699-3 0  9999
2 43793  97.5797 183.0281 0014189 304.3199  55.6683 15.03204476239837
ASTROCAST 0.1           
1 43798U 18099AS  23116.18428967  .00005082  00000+0  39369-3 0  9993
2 43798  97.5915 181.9923 0012392 276.0601  83.9212 15.01806050239961
JY1SAT (JO-97)          
1 43803U 18099AX  23116.76845452  .00004817  00000+0  38914-3 0  9996
2 43803  97.5713 180.6811 0011948 280.7621  79.2258 15.00229495239987
SUOMI-100               
1 43804U 18099AY  23116.88733410  .00004201  00000+0  34221-3 0  9994
2 43804  97.5735 180.6333 0014614 292.3765  67.5910 14.99948497240009
AL-FARABI 2             
1 43805U 18099AZ  23117.15147369  .00009831  00000+0  76419-3 0  9997
2 43805  97.5714 181.8639 0009144 271.4554  88.5624 15.01463469240094
